{"type": "FeatureCollection", "features": [ {"type": "Feature", "properties": {"norad_id": 41836, "name": "HIMAWARI-9", "group": "weather", "lat": -0.017582562537760874, "lon": -164.10262361607053, "alt_km": 35789.19814784914, "timestamp": "2025-12-05T22:40:48.202521+00:00", "meta": {"OBJECT_NAME": "HIMAWARI-9", "OBJECT_ID": "2016-064A", "EPOCH": "2025-12-04T21:14:44.627136", "MEAN_MOTION": 1.00270612, "ECCENTRICITY": 0.0002351, "INCLINATION": 0.0193, "RA_OF_ASC_NODE": 3.7066, "ARG_OF_PERICENTER": 298.1265, "MEAN_ANOMALY": 231.5502, "EPHEMERIS_TYPE": 0, "CLASSIFICATION_TYPE": "U", "NORAD_CAT_ID": 41836, "ELEMENT_SET_NO": 999, "REV_AT_EPOCH": 3326, "BSTAR": 0, "MEAN_MOTION_DOT": 0, "MEAN_MOTION_DDOT": 0}, "tle": {"line1": "1 41836U 16064A   25338.88523874  .00000000  00000+0  00000+0 0  9993", "line2": "2 41836   0.0193   3.7066 0002351 298.1265 231.5502  1.00270612 33264"}}, "geometry": {"type": "Point", "coordinates": [-164.10262361607053, -0.017582562537760874]}}, {"type": "Feature", "properties": {"norad_id": 41866, "name": "GOES 16", "group": "weather", "lat": -0.04094421812380516, "lon": -49.46049538316561, "alt_km": 35777.29051730064, "timestamp": "2025-12-05T22:40:48.202534+00:00", "meta": {"OBJECT_NAME": "GOES 16", "OBJECT_ID": "2016-071A", "EPOCH": "2025-12-04T23:30:09.154368", "MEAN_MOTION": 1.00270976, "ECCENTRICITY": 0.00034956, "INCLINATION": 0.0634, "RA_OF_ASC_NODE": 104.5647, "ARG_OF_PERICENTER": 153.5233, "MEAN_ANOMALY": 63.822, "EPHEMERIS_TYPE": 0, "CLASSIFICATION_TYPE": "U", "NORAD_CAT_ID": 41866, "ELEMENT_SET_NO": 999, "REV_AT_EPOCH": 3315, "BSTAR": 0, "MEAN_MOTION_DOT": -7.8e-07, "MEAN_MOTION_DDOT": 0}, "tle": {"line1": "1 41866U 16071A   25338.97927262 -.00000078  00000+0  00000+0 0  9999", "line2": "2 41866   0.0634 104.5647 0003495 153.5233  63.8220  1.00270976 33155"}}, "geometry": {"type": "Point", "coordinates": [-49.46049538316561, -0.04094421812380516]}}, {"type": "Feature", "properties": {"norad_id": 41882, "name": "FENGYUN 4A", "group": "weather", "lat": 1.808228993087222, "lon": 178.92906036077306, "alt_km": 35769.74241806449, "timestamp": "2025-12-05T22:40:48.202548+00:00", "meta": {"OBJECT_NAME": "FENGYUN 4A", "OBJECT_ID": "2016-077A", "EPOCH": "2025-12-05T07:49:27.297696", "MEAN_MOTION": 1.00277171, "ECCENTRICITY": 0.00050464, "INCLINATION": 1.8292, "RA_OF_ASC_NODE": 82.4654, "ARG_OF_PERICENTER": 142.6893, "MEAN_ANOMALY": 90.3651, "EPHEMERIS_TYPE": 0, "CLASSIFICATION_TYPE": "U", "NORAD_CAT_ID": 41882, "ELEMENT_SET_NO": 999, "REV_AT_EPOCH": 3298, "BSTAR": 0, "MEAN_MOTION_DOT": -3.46e-06, "MEAN_MOTION_DDOT": 0}, "tle": {"line1": "1 41882U 16077A   25339.32601039 -.00000346  00000+0  00000+0 0  9992", "line2": "2 41882   1.8292  82.4654 0005046 142.6893  90.3651  1.00277171 32986"}}, "geometry": {"type": "Point", "coordinates": [178.92906036077306, 1.808228993087222]}}, {"type": "Feature", "properties": {"norad_id": 41884, "name": "CYGFM05", "group": "weather", "lat": -31.66214420948812, "lon": -26.525265475080605, "alt_km": 430.5510917227066, "timestamp": "2025-12-05T22:40:48.202559+00:00", "meta": {"OBJECT_NAME": "CYGFM05", "OBJECT_ID": "2016-078A", "EPOCH": "2025-12-04T17:44:51.108288", "MEAN_MOTION": 15.47193699, "ECCENTRICITY": 0.00093933, "INCLINATION": 34.9585, "RA_OF_ASC_NODE": 99.3714, "ARG_OF_PERICENTER": 106.8166, "MEAN_ANOMALY": 253.3587, "EPHEMERIS_TYPE": 0, "CLASSIFICATION_TYPE": "U", "NORAD_CAT_ID": 41884, "ELEMENT_SET_NO": 999, "REV_AT_EPOCH": 49852, "BSTAR": 0.00067072561, "MEAN_MOTION_DOT": 0.00035301, "MEAN_MOTION_DDOT": 0}, "tle": {"line1": "1 41884U 16078A   25338.73948042  .00035301  00000+0  67073-3 0  9992", "line2": "2 41884  34.9585  99.3714 0009393 106.8166 253.3587 15.47193699498521"}}, "geometry": {"type": "Point", "coordinates": [-26.525265475080605, -31.66214420948812]}}, {"type": "Feature", "properties": {"norad_id": 41885, "name": "CYGFM04", "group": "weather", "lat": 29.449155816495942, "lon": 120.45799533992005, "alt_km": 411.2256127220926, "timestamp": "2025-12-05T22:40:48.202582+00:00", "meta": {"OBJECT_NAME": "CYGFM04", "OBJECT_ID": "2016-078B", "EPOCH": "2025-12-05T06:58:02.380512", "MEAN_MOTION": 15.49899257, "ECCENTRICITY": 0.00085535, "INCLINATION": 34.9353, "RA_OF_ASC_NODE": 70.7664, "ARG_OF_PERICENTER": 142.1498, "MEAN_ANOMALY": 217.9826, "EPHEMERIS_TYPE": 0, "CLASSIFICATION_TYPE": "U", "NORAD_CAT_ID": 41885, "ELEMENT_SET_NO": 999, "REV_AT_EPOCH": 49878, "BSTAR": 0.00059246999, "MEAN_MOTION_DOT": 0.00034278, "MEAN_MOTION_DDOT": 0}, "tle": {"line1": "1 41885U 16078B   25339.29030533  .00034278  00000+0  59247-3 0  9998", "line2": "2 41885  34.9353  70.7664 0008553 142.1498 217.9826 15.49899257498785"}}, "geometry": {"type": "Point", "coordinates": [120.45799533992005, 29.449155816495942]}}, {"type": "Feature", "properties": {"norad_id": 41886, "name": "CYGFM02", "group": "weather", "lat": 20.97473129919051, "lon": 98.1867980241403, "alt_km": 410.9938715824437, "timestamp": "2025-12-05T22:40:48.202596+00:00", "meta": {"OBJECT_NAME": "CYGFM02", "OBJECT_ID": "2016-078C", "EPOCH": "2025-12-05T07:04:08.029632", "MEAN_MOTION": 15.51248378, "ECCENTRICITY": 0.00102402, "INCLINATION": 34.9442, "RA_OF_ASC_NODE": 69.1599, "ARG_OF_PERICENTER": 141.5987, "MEAN_ANOMALY": 218.5466, "EPHEMERIS_TYPE": 0, "CLASSIFICATION_TYPE": "U", "NORAD_CAT_ID": 41886, "ELEMENT_SET_NO": 999, "REV_AT_EPOCH": 49891, "BSTAR": 0.00059837355, "MEAN_MOTION_DOT": 0.00036361, "MEAN_MOTION_DDOT": 0}, "tle": {"line1": "1 41886U 16078C   25339.29453738  .00036361  00000+0  59837-3 0  9995", "line2": "2 41886  34.9442  69.1599 0010240 141.5987 218.5466 15.51248378498913"}}, "geometry": {"type": "Point", "coordinates": [98.1867980241403, 20.97473129919051]}}, {"type": "Feature", "properties": {"norad_id": 41887, "name": "CYGFM01", "group": "weather", "lat": -34.67068163930815, "lon": 11.730311262892789, "alt_km": 431.03313779515884, "timestamp": "2025-12-05T22:40:48.202608+00:00", "meta": {"OBJECT_NAME": "CYGFM01", "OBJECT_ID": "2016-078D", "EPOCH": "2025-12-04T17:37:43.596768", "MEAN_MOTION": 15.47761189, "ECCENTRICITY": 0.00089989, "INCLINATION": 34.9415, "RA_OF_ASC_NODE": 101.809, "ARG_OF_PERICENTER": 98.3957, "MEAN_ANOMALY": 261.7784, "EPHEMERIS_TYPE": 0, "CLASSIFICATION_TYPE": "U", "NORAD_CAT_ID": 41887, "ELEMENT_SET_NO": 999, "REV_AT_EPOCH": 49846, "BSTAR": 0.00070294762, "MEAN_MOTION_DOT": 0.00037747, "MEAN_MOTION_DDOT": 0}, "tle": {"line1": "1 41887U 16078D   25338.73453237  .00037747  00000+0  70295-3 0  9998", "line2": "2 41887  34.9415 101.8090 0008998  98.3957 261.7784 15.47761189498465"}}, "geometry": {"type": "Point", "coordinates": [11.730311262892789, -34.67068163930815]}}, {"type": "Feature", "properties": {"norad_id": 41888, "name": "CYGFM08", "group": "weather", "lat": -31.129983769288266, "lon": 17.10018026422503, "alt_km": 428.31322571825785, "timestamp": "2025-12-05T22:40:48.202619+00:00", "meta": {"OBJECT_NAME": "CYGFM08", "OBJECT_ID": "2016-078E", "EPOCH": "2025-12-05T07:29:25.554912", "MEAN_MOTION": 15.48979446, "ECCENTRICITY": 0.00107366, "INCLINATION": 34.9459, "RA_OF_ASC_NODE": 81.1133, "ARG_OF_PERICENTER": 129.6344, "MEAN_ANOMALY": 230.5327, "EPHEMERIS_TYPE": 0, "CLASSIFICATION_TYPE": "U", "NORAD_CAT_ID": 41888, "ELEMENT_SET_NO": 999, "REV_AT_EPOCH": 49878, "BSTAR": 0.00059707606, "MEAN_MOTION_DOT": 0.00033462, "MEAN_MOTION_DDOT": 0}, "tle": {"line1": "1 41888U 16078E   25339.31210133  .00033462  00000+0  59708-3 0  9996", "line2": "2 41888  34.9459  81.1133 0010736 129.6344 230.5327 15.48979446498783"}}, "geometry": {"type": "Point", "coordinates": [17.10018026422503, -31.129983769288266]}}, {"type": "Feature", "properties": {"norad_id": 41890, "name": "CYGFM07", "group": "weather", "lat": -34.92311448186808, "lon": -25.133915671432852, "alt_km": 422.6084228671216, "timestamp": "2025-12-05T22:40:48.202630+00:00", "meta": {"OBJECT_NAME": "CYGFM07", "OBJECT_ID": "2016-078G", "EPOCH": "2025-12-05T07:36:34.249248", "MEAN_MOTION": 15.49552751, "ECCENTRICITY": 0.00090676, "INCLINATION": 34.9475, "RA_OF_ASC_NODE": 70.1032, "ARG_OF_PERICENTER": 148.1425, "MEAN_ANOMALY": 211.9847, "EPHEMERIS_TYPE": 0, "CLASSIFICATION_TYPE": "U", "NORAD_CAT_ID": 41890, "ELEMENT_SET_NO": 999, "REV_AT_EPOCH": 49880, "BSTAR": 0.00060057967, "MEAN_MOTION_DOT": 0.00034329, "MEAN_MOTION_DDOT": 0}, "tle": {"line1": "1 41890U 16078G   25339.31706307  .00034329  00000+0  60058-3 0  9995", "line2": "2 41890  34.9475  70.1032 0009067 148.1425 211.9847 15.49552751498801"}}, "geometry": {"type": "Point", "coordinates": [-25.133915671432852, -34.92311448186808]}}, {"type": "Feature", "properties": {"norad_id": 41891, "name": "CYGFM03", "group": "weather", "lat": 33.37260593217972, "lon": 177.2779876205259, "alt_km": 407.32472952808257, "timestamp": "2025-12-05T22:40:48.202641+00:00", "meta": {"OBJECT_NAME": "CYGFM03", "OBJECT_ID": "2016-078H", "EPOCH": "2025-12-05T06:45:42.681600", "MEAN_MOTION": 15.49453008, "ECCENTRICITY": 0.00083751, "INCLINATION": 34.9433, "RA_OF_ASC_NODE": 72.2485, "ARG_OF_PERICENTER": 134.4975, "MEAN_ANOMALY": 225.6432, "EPHEMERIS_TYPE": 0, "CLASSIFICATION_TYPE": "U", "NORAD_CAT_ID": 41891, "ELEMENT_SET_NO": 999, "REV_AT_EPOCH": 49877, "BSTAR": 0.00058155906, "MEAN_MOTION_DOT": 0.0003311, "MEAN_MOTION_DDOT": 0}, "tle": {"line1": "1 41891U 16078H   25339.28174400  .00033110  00000+0  58156-3 0  9998", "line2": "2 41891  34.9433  72.2485 0008375 134.4975 225.6432 15.49453008498773"}}, "geometry": {"type": "Point", "coordinates": [177.2779876205259, 33.37260593217972]}}]}